CCSDS_OMM_VERS = 2.0
CREATION_DATE  = 
ORIGINATOR     = 

OBJECT_NAME    = IDEFIX & ARIANE 42P R/B
OBJECT_ID      = 2002-021B
CENTER_NAME    = EARTH
REF_FRAME      = TEME
TIME_SYSTEM    = UTC
MEAN_ELEMENT_THEORY = SGP/SGP4

EPOCH          = 2025-12-31T09:25:19.221312
MEAN_MOTION    = 14.30966668
ECCENTRICITY   = .0012494
INCLINATION    = 98.5807
RA_OF_ASC_NODE = 299.8434
ARG_OF_PERICENTER = 32.8690
MEAN_ANOMALY   = 327.3267

EPHEMERIS_TYPE = 0
CLASSIFICATION_TYPE = U
NORAD_CAT_ID   = 27422
ELEMENT_SET_NO = 999
REV_AT_EPOCH   = 23425
BSTAR          = .25415E-3
MEAN_MOTION_DOT = .625E-5
MEAN_MOTION_DDOT = 0

CCSDS_OMM_VERS = 2.0
CREATION_DATE  = 
ORIGINATOR     = 

OBJECT_NAME    = AQUA
OBJECT_ID      = 2002-022A
CENTER_NAME    = EARTH
REF_FRAME      = TEME
TIME_SYSTEM    = UTC
MEAN_ELEMENT_THEORY = SGP/SGP4

EPOCH          = 2025-12-30T23:04:41.326752
MEAN_MOTION    = 14.61780362
ECCENTRICITY   = .0001917
INCLINATION    = 98.4061
RA_OF_ASC_NODE = 326.1389
ARG_OF_PERICENTER = 95.3187
MEAN_ANOMALY   = 305.7939

EPHEMERIS_TYPE = 0
CLASSIFICATION_TYPE = U
NORAD_CAT_ID   = 27424
ELEMENT_SET_NO = 999
REV_AT_EPOCH   = 25869
BSTAR          = .40088E-3
MEAN_MOTION_DOT = .1951E-4
MEAN_MOTION_DDOT = 0

CCSDS_OMM_VERS = 2.0
CREATION_DATE  = 
ORIGINATOR     = 

OBJECT_NAME    = CZ-4B R/B
OBJECT_ID      = 2002-024C
CENTER_NAME    = EARTH
REF_FRAME      = TEME
TIME_SYSTEM    = UTC
MEAN_ELEMENT_THEORY = SGP/SGP4

EPOCH          = 2025-12-31T09:07:53.612832
MEAN_MOTION    = 14.14532401
ECCENTRICITY   = .0049632
INCLINATION    = 98.8972
RA_OF_ASC_NODE = 54.0847
ARG_OF_PERICENTER = 216.1646
MEAN_ANOMALY   = 155.6847

EPHEMERIS_TYPE = 0
CLASSIFICATION_TYPE = U
NORAD_CAT_ID   = 27432
ELEMENT_SET_NO = 999
REV_AT_EPOCH   = 21958
BSTAR          = .94065E-4
MEAN_MOTION_DOT = .138E-5
MEAN_MOTION_DDOT = 0

CCSDS_OMM_VERS = 2.0
CREATION_DATE  = 
ORIGINATOR     = 

OBJECT_NAME    = MIDORI II (ADEOS-II)
OBJECT_ID      = 2002-056A
CENTER_NAME    = EARTH
REF_FRAME      = TEME
TIME_SYSTEM    = UTC
MEAN_ELEMENT_THEORY = SGP/SGP4

EPOCH          = 2025-12-31T11:27:48.413952
MEAN_MOTION    = 14.29222062
ECCENTRICITY   = .0001122
INCLINATION    = 98.7661
RA_OF_ASC_NODE = 318.5347
ARG_OF_PERICENTER = 139.0541
MEAN_ANOMALY   = 221.0725

EPHEMERIS_TYPE = 0
CLASSIFICATION_TYPE = U
NORAD_CAT_ID   = 27597
ELEMENT_SET_NO = 999
REV_AT_EPOCH   = 20055
BSTAR          = .27957E-3
MEAN_MOTION_DOT = .665E-5
MEAN_MOTION_DDOT = 0

CCSDS_OMM_VERS = 2.0
CREATION_DATE  = 
ORIGINATOR     = 

OBJECT_NAME    = H-2A R/B
OBJECT_ID      = 2002-056E
CENTER_NAME    = EARTH
REF_FRAME      = TEME
TIME_SYSTEM    = UTC
MEAN_ELEMENT_THEORY = SGP/SGP4

EPOCH          = 2025-12-31T12:48:57.460896
MEAN_MOTION    = 14.33696381
ECCENTRICITY   = .0070517
INCLINATION    = 98.3090
RA_OF_ASC_NODE = 323.5451
ARG_OF_PERICENTER = 5.7034
MEAN_ANOMALY   = 106.3018

EPHEMERIS_TYPE = 0
CLASSIFICATION_TYPE = U
NORAD_CAT_ID   = 27601
ELEMENT_SET_NO = 999
REV_AT_EPOCH   = 20434
BSTAR          = .2936E-3
MEAN_MOTION_DOT = .796E-5
MEAN_MOTION_DDOT = 0

CCSDS_OMM_VERS = 2.0
CREATION_DATE  = 
ORIGINATOR     = 

OBJECT_NAME    = CZ-4B R/B
OBJECT_ID      = 2003-049C
CENTER_NAME    = EARTH
REF_FRAME      = TEME
TIME_SYSTEM    = UTC
MEAN_ELEMENT_THEORY = SGP/SGP4

EPOCH          = 2025-12-31T12:11:37.699008
MEAN_MOTION    = 14.54931149
ECCENTRICITY   = .0049338
INCLINATION    = 98.6802
RA_OF_ASC_NODE = 352.7823
ARG_OF_PERICENTER = 79.9901
MEAN_ANOMALY   = 280.6857

EPHEMERIS_TYPE = 0
CLASSIFICATION_TYPE = U
NORAD_CAT_ID   = 28059
ELEMENT_SET_NO = 999
REV_AT_EPOCH   = 17668
BSTAR          = .21261E-3
MEAN_MOTION_DOT = .878E-5
MEAN_MOTION_DDOT = 0

CCSDS_OMM_VERS = 2.0
CREATION_DATE  = 
ORIGINATOR     = 

OBJECT_NAME    = CZ-2C R/B
OBJECT_ID      = 2004-012C
CENTER_NAME    = EARTH
REF_FRAME      = TEME
TIME_SYSTEM    = UTC
MEAN_ELEMENT_THEORY = SGP/SGP4

EPOCH          = 2025-12-31T04:38:59.834112
MEAN_MOTION    = 15.57052218
ECCENTRICITY   = .0016703
INCLINATION    = 97.7394
RA_OF_ASC_NODE = 59.3563
ARG_OF_PERICENTER = 199.1689
MEAN_ANOMALY   = 160.8939

EPHEMERIS_TYPE = 0
CLASSIFICATION_TYPE = U
NORAD_CAT_ID   = 28222
ELEMENT_SET_NO = 999
REV_AT_EPOCH   = 19359
BSTAR          = .77604E-3
MEAN_MOTION_DOT = .56659E-3
MEAN_MOTION_DDOT = 0

CCSDS_OMM_VERS = 2.0
CREATION_DATE  = 
ORIGINATOR     = 

OBJECT_NAME    = SL-16 R/B
OBJECT_ID      = 2004-021B
CENTER_NAME    = EARTH
REF_FRAME      = TEME
TIME_SYSTEM    = UTC
MEAN_ELEMENT_THEORY = SGP/SGP4

EPOCH          = 2025-12-31T12:02:54.399264
MEAN_MOTION    = 14.14584397
ECCENTRICITY   = .0004224
INCLINATION    = 71.0010
RA_OF_ASC_NODE = 15.5903
ARG_OF_PERICENTER = 168.3881
MEAN_ANOMALY   = 191.7339

EPHEMERIS_TYPE = 0
CLASSIFICATION_TYPE = U
NORAD_CAT_ID   = 28353
ELEMENT_SET_NO = 999
REV_AT_EPOCH   = 11319
BSTAR          = .24988E-3
MEAN_MOTION_DOT = .433E-5
MEAN_MOTION_DDOT = 0

CCSDS_OMM_VERS = 2.0
CREATION_DATE  = 
ORIGINATOR     = 

OBJECT_NAME    = CZ-4B R/B
OBJECT_ID      = 2004-035C
CENTER_NAME    = EARTH
REF_FRAME      = TEME
TIME_SYSTEM    = UTC
MEAN_ELEMENT_THEORY = SGP/SGP4

EPOCH          = 2025-12-31T08:41:25.291392
MEAN_MOTION    = 15.27713701
ECCENTRICITY   = .0032159
INCLINATION    = 97.3592
RA_OF_ASC_NODE = 35.4598
ARG_OF_PERICENTER = 208.4306
MEAN_ANOMALY   = 151.5180

EPHEMERIS_TYPE = 0
CLASSIFICATION_TYPE = U
NORAD_CAT_ID   = 28415
ELEMENT_SET_NO = 999
REV_AT_EPOCH   = 16947
BSTAR          = .48417E-3
MEAN_MOTION_DOT = .13246E-3
MEAN_MOTION_DDOT = 0

CCSDS_OMM_VERS = 2.0
CREATION_DATE  = 
ORIGINATOR     = 

OBJECT_NAME    = CZ-2C R/B
OBJECT_ID      = 2004-046B
CENTER_NAME    = EARTH
REF_FRAME      = TEME
TIME_SYSTEM    = UTC
MEAN_ELEMENT_THEORY = SGP/SGP4

EPOCH          = 2025-12-31T09:36:24.117696
MEAN_MOTION    = 14.26954895
ECCENTRICITY   = .0139509
INCLINATION    = 98.1998
RA_OF_ASC_NODE = 279.6196
ARG_OF_PERICENTER = 357.3271
MEAN_ANOMALY   = 2.7150

EPHEMERIS_TYPE = 0
CLASSIFICATION_TYPE = U
NORAD_CAT_ID   = 28480
ELEMENT_SET_NO = 999
REV_AT_EPOCH   = 9876
BSTAR          = .22802E-3
MEAN_MOTION_DOT = .573E-5
MEAN_MOTION_DDOT = 0

CCSDS_OMM_VERS = 2.0
CREATION_DATE  = 
ORIGINATOR     = 

OBJECT_NAME    = ARIANE 5 R/B
OBJECT_ID      = 2004-049H
CENTER_NAME    = EARTH
REF_FRAME      = TEME
TIME_SYSTEM    = UTC
MEAN_ELEMENT_THEORY = SGP/SGP4

EPOCH          = 2025-12-31T10:50:05.500320
MEAN_MOTION    = 14.85071244
ECCENTRICITY   = .008381
INCLINATION    = 98.2525
RA_OF_ASC_NODE = 166.4054
ARG_OF_PERICENTER = 211.5575
MEAN_ANOMALY   = 148.0598

EPHEMERIS_TYPE = 0
CLASSIFICATION_TYPE = U
NORAD_CAT_ID   = 28499
ELEMENT_SET_NO = 999
REV_AT_EPOCH   = 13566
BSTAR          = .29032E-3
MEAN_MOTION_DOT = .2577E-4
MEAN_MOTION_DDOT = 0

CCSDS_OMM_VERS = 2.0
CREATION_DATE  = 
ORIGINATOR     = 

OBJECT_NAME    = CZ-2D R/B
OBJECT_ID      = 2005-024B
CENTER_NAME    = EARTH
REF_FRAME      = TEME
TIME_SYSTEM    = UTC
MEAN_ELEMENT_THEORY = SGP/SGP4

EPOCH          = 2025-12-31T11:07:06.046752
MEAN_MOTION    = 15.54418584
ECCENTRICITY   = .0003068
INCLINATION    = 97.3622
RA_OF_ASC_NODE = 13.4157
ARG_OF_PERICENTER = 275.2786
MEAN_ANOMALY   = 84.8118

EPHEMERIS_TYPE = 0
CLASSIFICATION_TYPE = U
NORAD_CAT_ID   = 28738
ELEMENT_SET_NO = 999
REV_AT_EPOCH   = 12916
BSTAR          = .68236E-3
MEAN_MOTION_DOT = .44877E-3
MEAN_MOTION_DDOT = 0

