IDEFIX & ARIANE 42P R/B 
1 27422U 02021B   25365.39258358  .00000625  00000+0  25415-3 0  9998
2 27422  98.5807 299.8434 0012494  32.8690 327.3267 14.30966668234258
AQUA                    
1 27424U 02022A   25364.96158943  .00001951  00000+0  40088-3 0  9998
2 27424  98.4061 326.1389 0001917  95.3187 305.7939 14.61780362258696
CZ-4B R/B               
1 27432U 02024C   25365.38048163  .00000138  00000+0  94065-4 0  9999
2 27432  98.8972  54.0847 0049632 216.1646 155.6847 14.14532401219587
MIDORI II (ADEOS-II)    
1 27597U 02056A   25365.47764368  .00000665  00000+0  27957-3 0  9998
2 27597  98.7661 318.5347 0001122 139.0541 221.0725 14.29222062200550
H-2A R/B                
1 27601U 02056E   25365.53399839  .00000796  00000+0  29360-3 0  9993
2 27601  98.3090 323.5451 0070517   5.7034 106.3018 14.33696381204345
CZ-4B R/B               
1 28059U 03049C   25365.50807522  .00000878  00000+0  21261-3 0  9997
2 28059  98.6802 352.7823 0049338  79.9901 280.6857 14.54931149176686
CZ-2C R/B               
1 28222U 04012C   25365.19374808  .00056659  00000+0  77604-3 0  9991
2 28222  97.7394  59.3563 0016703 199.1689 160.8939 15.57052218193597
SL-16 R/B               
1 28353U 04021B   25365.50201851  .00000433  00000+0  24988-3 0  9994
2 28353  71.0010  15.5903 0004224 168.3881 191.7339 14.14584397113196
CZ-4B R/B               
1 28415U 04035C   25365.36209828  .00013246  00000+0  48417-3 0  9993
2 28415  97.3592  35.4598 0032159 208.4306 151.5180 15.27713701169476
CZ-2C R/B               
1 28480U 04046B   25365.40027914  .00000573  00000+0  22802-3 0  9995
2 28480  98.1998 279.6196 0139509 357.3271   2.7150 14.26954895 98761
ARIANE 5 R/B            
1 28499U 04049H   25365.45145255  .00002577  00000+0  29032-3 0  9990
2 28499  98.2525 166.4054 0083810 211.5575 148.0598 14.85071244135669
CZ-2D R/B               
1 28738U 05024B   25365.46326443  .00044877  00000+0  68236-3 0  9999
2 28738  97.3622  13.4157 0003068 275.2786  84.8118 15.54418584129168
